{
  "type": "FeatureCollection",
  "features": [
    {
      "type": "Feature",
      "properties": {
        "norad_id": 33835,
        "name": "COSMOS 2251 DEB",
        "group": "cosmos-2251-debris",
        "lat": 60.76567865133991,
        "lon": 132.77748484307523,
        "alt_km": 679.8101990221476,
        "timestamp": "2025-12-12T05:47:29.164127+00:00",
        "meta_object_name": "COSMOS 2251 DEB",
        "meta_object_id": "1993-036CC",
        "meta_epoch": "2025-12-11T14:48:20.209248",
        "meta_mean_motion": 14.62231732,
        "meta_eccentricity": 0.00548182,
        "meta_inclination": 74.0571,
        "meta_ra_of_asc_node": 103.2567,
        "meta_arg_of_pericenter": 157.0707,
        "meta_mean_anomaly": 223.2071,
        "meta_ephemeris_type": 0,
        "meta_classification_type": "U",
        "meta_norad_cat_id": 33835,
        "meta_element_set_no": 999,
        "meta_rev_at_epoch": 88773,
        "meta_bstar": 0.0018288179,
        "meta_mean_motion_dot": 9.4e-05,
        "meta_mean_motion_ddot": 0,
        "tle_line1": "1 33835U 93036CC  25345.61690057  .00009400  00000+0  18288-2 0  9997",
        "tle_line2": "2 33835  74.0571 103.2567 0054818 157.0707 223.2071 14.62231732887736"
      },
      "geometry": {
        "type": "Point",
        "coordinates": [
          132.77748484307523,
          60.76567865133991
        ]
      }
    },
    {
      "type": "Feature",
      "properties": {
        "norad_id": 33836,
        "name": "COSMOS 2251 DEB",
        "group": "cosmos-2251-debris",
        "lat": 54.732669813640356,
        "lon": -76.12262050768844,
        "alt_km": 616.018448105815,
        "timestamp": "2025-12-12T05:47:29.164138+00:00",
        "meta_object_name": "COSMOS 2251 DEB",
        "meta_object_id": "1993-036CD",
        "meta_epoch": "2025-12-11T21:45:06.383232",
        "meta_mean_motion": 14.79593513,
        "meta_eccentricity": 0.00225213,
        "meta_inclination": 73.9971,
        "meta_ra_of_asc_node": 260.5952,
        "meta_arg_of_pericenter": 114.2059,
        "meta_mean_anomaly": 320.6361,
        "meta_ephemeris_type": 0,
        "meta_classification_type": "U",
        "meta_norad_cat_id": 33836,
        "meta_element_set_no": 999,
        "meta_rev_at_epoch": 64076,
        "meta_bstar": 0.0019365326,
        "meta_mean_motion_dot": 0.00014571,
        "meta_mean_motion_ddot": 0,
        "tle_line1": "1 33836U 93036CD  25345.90632388  .00014571  00000+0  19365-2 0  9995",
        "tle_line2": "2 33836  73.9971 260.5952 0022521 114.2059 320.6361 14.79593513640765"
      },
      "geometry": {
        "type": "Point",
        "coordinates": [
          -76.12262050768844,
          54.732669813640356
        ]
      }
    },
    {
      "type": "Feature",
      "properties": {
        "norad_id": 33837,
        "name": "COSMOS 2251 DEB",
        "group": "cosmos-2251-debris",
        "lat": 73.98877521247749,
        "lon": 143.97483285348773,
        "alt_km": 741.094665982032,
        "timestamp": "2025-12-12T05:47:29.164148+00:00",
        "meta_object_name": "COSMOS 2251 DEB",
        "meta_object_id": "1993-036CE",
        "meta_epoch": "2025-12-11T21:06:16.714368",
        "meta_mean_motion": 14.50699393,
        "meta_eccentricity": 0.00358688,
        "meta_inclination": 74.0139,
        "meta_ra_of_asc_node": 57.2177,
        "meta_arg_of_pericenter": 279.0966,
        "meta_mean_anomaly": 80.6136,
        "meta_ephemeris_type": 0,
        "meta_classification_type": "U",
        "meta_norad_cat_id": 33837,
        "meta_element_set_no": 999,
        "meta_rev_at_epoch": 88783,
        "meta_bstar": 0.00045243559,
        "meta_mean_motion_dot": 1.764e-05,
        "meta_mean_motion_ddot": 0,
        "tle_line1": "1 33837U 93036CE  25345.87936012  .00001764  00000+0  45244-3 0  9999",
        "tle_line2": "2 33837  74.0139  57.2177 0035868 279.0966  80.6136 14.50699393887835"
      },
      "geometry": {
        "type": "Point",
        "coordinates": [
          143.97483285348773,
          73.98877521247749
        ]
      }
    },
    {
      "type": "Feature",
      "properties": {
        "norad_id": 33838,
        "name": "COSMOS 2251 DEB",
        "group": "cosmos-2251-debris",
        "lat": -32.44991206721703,
        "lon": 140.26043883265825,
        "alt_km": 725.1152698934411,
        "timestamp": "2025-12-12T05:47:29.164158+00:00",
        "meta_object_name": "COSMOS 2251 DEB",
        "meta_object_id": "1993-036CF",
        "meta_epoch": "2025-12-11T22:12:02.321568",
        "meta_mean_motion": 14.48359469,
        "meta_eccentricity": 0.00274628,
        "meta_inclination": 74.0364,
        "meta_ra_of_asc_node": 151.3392,
        "meta_arg_of_pericenter": 273.3203,
        "meta_mean_anomaly": 204.1445,
        "meta_ephemeris_type": 0,
        "meta_classification_type": "U",
        "meta_norad_cat_id": 33838,
        "meta_element_set_no": 999,
        "meta_rev_at_epoch": 88557,
        "meta_bstar": 0.00067537443,
        "meta_mean_motion_dot": 2.512e-05,
        "meta_mean_motion_ddot": 0,
        "tle_line1": "1 33838U 93036CF  25345.92502687  .00002512  00000+0  67537-3 0  9994",
        "tle_line2": "2 33838  74.0364 151.3392 0027462 273.3203 204.1445 14.48359469885572"
      },
      "geometry": {
        "type": "Point",
        "coordinates": [
          140.26043883265825,
          -32.44991206721703
        ]
      }
    },
    {
      "type": "Feature",
      "properties": {
        "norad_id": 33839,
        "name": "COSMOS 2251 DEB",
        "group": "cosmos-2251-debris",
        "lat": -40.73112832446386,
        "lon": 41.70491809866064,
        "alt_km": 691.9258026348925,
        "timestamp": "2025-12-12T05:47:29.164168+00:00",
        "meta_object_name": "COSMOS 2251 DEB",
        "meta_object_id": "1993-036CG",
        "meta_epoch": "2025-12-12T00:25:22.389600",
        "meta_mean_motion": 14.64417762,
        "meta_eccentricity": 0.00850937,
        "meta_inclination": 74.039,
        "meta_ra_of_asc_node": 207.8676,
        "meta_arg_of_pericenter": 320.1049,
        "meta_mean_anomaly": 164.7317,
        "meta_ephemeris_type": 0,
        "meta_classification_type": "U",
        "meta_norad_cat_id": 33839,
        "meta_element_set_no": 999,
        "meta_rev_at_epoch": 89569,
        "meta_bstar": 0.00037946037,
        "meta_mean_motion_dot": 2.083e-05,
        "meta_mean_motion_ddot": 0,
        "tle_line1": "1 33839U 93036CG  25346.01762025  .00002083  00000+0  37946-3 0  9994",
        "tle_line2": "2 33839  74.0390 207.8676 0085093 320.1049 164.7317 14.64417762895699"
      },
      "geometry": {
        "type": "Point",
        "coordinates": [
          41.70491809866064,
          -40.73112832446386
        ]
      }
    },
    {
      "type": "Feature",
      "properties": {
        "norad_id": 33841,
        "name": "COSMOS 2251 DEB",
        "group": "cosmos-2251-debris",
        "lat": 1.688750658105625,
        "lon": -80.55677371255062,
        "alt_km": 753.3402633188007,
        "timestamp": "2025-12-12T05:47:29.164178+00:00",
        "meta_object_name": "COSMOS 2251 DEB",
        "meta_object_id": "1993-036CJ",
        "meta_epoch": "2025-12-11T21:43:01.461792",
        "meta_mean_motion": 14.37858859,
        "meta_eccentricity": 0.00204934,
        "meta_inclination": 74.0378,
        "meta_ra_of_asc_node": 279.5789,
        "meta_arg_of_pericenter": 0.147,
        "meta_mean_anomaly": 60.947,
        "meta_ephemeris_type": 0,
        "meta_classification_type": "U",
        "meta_norad_cat_id": 33841,
        "meta_element_set_no": 999,
        "meta_rev_at_epoch": 88102,
        "meta_bstar": 0.00038561133,
        "meta_mean_motion_dot": 1.14e-05,
        "meta_mean_motion_ddot": 0,
        "tle_line1": "1 33841U 93036CJ  25345.90487803  .00001140  00000+0  38561-3 0  9999",
        "tle_line2": "2 33841  74.0378 279.5789 0020493   0.1470  60.9470 14.37858859881020"
      },
      "geometry": {
        "type": "Point",
        "coordinates": [
          -80.55677371255062,
          1.688750658105625
        ]
      }
    },
    {
      "type": "Feature",
      "properties": {
        "norad_id": 33842,
        "name": "COSMOS 2251 DEB",
        "group": "cosmos-2251-debris",
        "lat": -62.592425196369696,
        "lon": 74.09338079537396,
        "alt_km": 750.785665329241,
        "timestamp": "2025-12-12T05:47:29.164189+00:00",
        "meta_object_name": "COSMOS 2251 DEB",
        "meta_object_id": "1993-036CK",
        "meta_epoch": "2025-12-11T23:39:06.838848",
        "meta_mean_motion": 14.42695315,
        "meta_eccentricity": 0.004727,
        "meta_inclination": 74.0328,
        "meta_ra_of_asc_node": 221.0518,
        "meta_arg_of_pericenter": 328.5344,
        "meta_mean_anomaly": 31.2986,
        "meta_ephemeris_type": 0,
        "meta_classification_type": "U",
        "meta_norad_cat_id": 33842,
        "meta_element_set_no": 999,
        "meta_rev_at_epoch": 88326,
        "meta_bstar": 0.00044498239,
        "meta_mean_motion_dot": 1.474e-05,
        "meta_mean_motion_ddot": 0,
        "tle_line1": "1 33842U 93036CK  25345.98549582  .00001474  00000+0  44498-3 0  9997",
        "tle_line2": "2 33842  74.0328 221.0518 0047270 328.5344  31.2986 14.42695315883260"
      },
      "geometry": {
        "type": "Point",
        "coordinates": [
          74.09338079537396,
          -62.592425196369696
        ]
      }
    }
  ]
}